OBJECT_NAME,OBJECT_ID,EPOCH,MEAN_MOTION,ECCENTRICITY,INCLINATION,RA_OF_ASC_NODE,ARG_OF_PERICENTER,MEAN_ANOMALY,EPHEMERIS_TYPE,CLASSIFICATION_TYPE,NORAD_CAT_ID,ELEMENT_SET_NO,REV_AT_EPOCH,BSTAR,MEAN_MOTION_DOT,MEAN_MOTION_DDOT
ONEWEB-0056,2020-008AE,2026-06-12T04:01:12.917568,13.10376873,.00019766,87.8845,37.2605,89.6877,270.4476,0,U,45159,999,30752,.1451483E-2,.519E-5,0
ONEWEB-0057,2020-008AF,2026-06-12T04:25:29.214624,13.10370566,.00022129,87.8837,37.2693,73.1550,286.9820,0,U,45160,999,30769,.16160788E-2,.577E-5,0
ONEWEB-0058,2020-008AG,2026-06-12T04:06:22.015296,13.10374309,.00015878,87.8834,37.2785,80.6968,279.4339,0,U,45161,999,30776,.17152441E-2,.611E-5,0
ONEWEB-0059,2020-008AH,2026-06-12T04:01:35.129280,13.10375352,.00017226,87.8835,37.2781,76.1135,284.0184,0,U,45162,999,30766,.14221516E-2,.509E-5,0
ONEWEB-0062,2020-008AJ,2026-06-12T02:44:41.446176,13.10369543,.00014258,87.8840,37.2755,90.4352,269.6939,0,U,45163,999,30752,.95983529E-3,.348E-5,0
ONEWEB-0065,2020-008AK,2026-06-12T03:32:28.466880,13.10374784,.00021519,87.8843,37.2770,81.0868,279.0503,0,U,45164,999,30722,-.13847837E-2,-.471E-5,0
STARLINK-1143,2020-012B,2026-06-12T08:00:01.999872,15.91326085,.0009319,53.0323,217.8299,6.9059,66.6442,0,U,45179,999,607,.52234445E-3,.168783E-2,.21639656E-4
STARLINK-1202,2020-012F,2026-06-11T17:06:50.470560,15.35095699,.00014858,53.1562,321.4839,234.3361,125.7503,0,U,45183,999,34936,.13040111E-2,.44936E-3,0
STARLINK-1216,2020-012H,2026-06-11T18:09:23.264064,15.35409184,.00015493,53.1575,321.1301,227.9990,132.0881,0,U,45185,999,34931,.13477487E-2,.46939E-3,0
STARLINK-1225,2020-012K,2026-06-12T03:29:49.843392,15.35488039,.0001565,53.1576,319.7688,243.9218,116.1624,0,U,45187,999,34941,.14491313E-2,.50652E-3,0
STARLINK-1230,2020-012M,2026-06-12T03:46:18.360480,15.35316155,.00016016,53.1579,319.7903,243.4340,116.6499,0,U,45189,999,34664,.14764367E-2,.51334E-3,0
STARLINK-1234,2020-012N,2026-06-12T07:18:11.456064,15.75272911,.00046793,53.0359,218.0818,293.0945,66.9580,0,U,45190,999,35073,.50206463E-3,.77189E-3,0
STARLINK-1269,2020-012V,2026-06-12T03:39:29.583072,15.35390745,.00003776,53.1572,319.6561,141.9147,218.1883,0,U,45197,999,34939,.14957073E-2,.52139E-3,0
STARLINK-1154,2020-012W,2026-06-11T14:53:56.904000,15.64089261,.00024878,53.0423,276.1988,0.3767,359.7249,0,U,45198,999,34990,.41254571E-3,.39461E-3,0
STARLINK-1199,2020-012Z,2026-06-12T02:57:49.978368,15.35361586,.00021393,53.1575,304.0602,293.5986,66.4792,0,U,45201,999,34963,.12654022E-2,.43964E-3,0
STARLINK-1209,2020-012AE,2026-06-11T10:49:18.200640,15.66149473,.0007027,53.0377,237.1902,257.4424,102.5805,0,U,45206,999,34954,.36948E-3,.38368E-3,0
STARLINK-1231,2020-012AL,2026-06-11T16:04:23.344032,15.28115307,.00025676,53.0379,301.6148,71.3902,288.7375,0,U,45212,999,34956,.14042733E-2,.38867E-3,0
STARLINK-1271,2020-012AR,2026-06-12T02:53:26.191392,15.35570715,.00021369,53.1573,304.1909,298.2709,61.8079,0,U,45217,999,34963,.13215539E-2,.46255E-3,0
STARLINK-1191,2020-012AW,2026-06-11T15:14:15.670176,15.39587784,.00021725,53.1552,279.3562,247.2490,112.8286,0,U,45222,999,34994,.13040249E-2,.52064E-3,0
STARLINK-1212,2020-012AX,2026-06-12T05:32:15.478080,15.67611308,.00009462,53.0394,248.9205,64.8841,295.2272,0,U,45223,999,35040,.51109074E-3,.56625E-3,0
STARLINK-1215,2020-012AZ,2026-06-11T14:22:23.468736,15.35728047,.0003313,53.1573,280.8995,301.0613,59.0065,0,U,45225,999,34987,.11463E-2,.40244E-3,0
STARLINK-1221,2020-012BB,2026-06-12T07:37:12.108000,15.44977334,.00028066,53.0628,180.1208,339.4218,20.6674,0,U,45227,999,35132,.32512458E-3,.15168E-3,0
STARLINK-1222,2020-012BC,2026-06-11T13:12:29.871936,15.55380249,.0002797,53.0529,250.8357,18.6133,341.4979,0,U,45228,999,35020,.46278E-3,.31677E-3,0
STARLINK-1226,2020-012BD,2026-06-11T14:32:31.725600,15.44604574,.000352,53.1546,276.6672,296.4173,63.6473,0,U,45229,999,34987,.12168E-2,.57521E-3,0
STARLINK-1227,2020-012BE,2026-06-11T14:46:20.262720,15.44704086,.0003333,53.1540,276.7262,287.9711,72.0932,0,U,45230,999,34999,.12029E-2,.57044E-3,0
STARLINK-1246,2020-012BK,2026-06-12T03:48:46.533024,15.35344333,.00019891,53.1574,319.2534,248.1275,111.9516,0,U,45235,999,34945,.14314688E-2,.49794E-3,0
STARLINK-1270,2020-012BM,2026-06-11T13:18:44.395200,15.63196059,.0003298,53.0398,253.7638,319.2855,40.7911,0,U,45237,999,35027,.10154E-2,.95187E-3,0
JCSAT-17,2020-013A,2026-06-12T07:00:08.004384,1.00272267,.00024134,5.3925,356.8175,82.2620,62.6007,0,U,45245,999,2318,0,-.306E-5,0
GEO-KOMPSAT-2B,2020-013B,2026-06-12T06:57:53.220384,1.00273160,.00006928,0.0222,248.7799,20.6692,223.9032,0,U,45246,999,2323,0,-.328E-5,0
MERIDIAN 9,2020-015A,2026-06-11T23:36:35.461728,2.00603455,.68591212,65.5244,319.5141,278.0090,15.2148,0,U,45254,999,4618,0,-.116E-5,0
