ONEWEB-0056             
1 45159U 20008AE  26163.16751062  .00000519  00000+0  14515-2 0  9992
2 45159  87.8845  37.2605 0001976  89.6877 270.4476 13.10376873307523
ONEWEB-0057             
1 45160U 20008AF  26163.18436591  .00000577  00000+0  16161-2 0  9996
2 45160  87.8837  37.2693 0002212  73.1550 286.9820 13.10370566307699
ONEWEB-0058             
1 45161U 20008AG  26163.17108814  .00000611  00000+0  17152-2 0  9990
2 45161  87.8834  37.2785 0001587  80.6968 279.4339 13.10374309307768
ONEWEB-0059             
1 45162U 20008AH  26163.16776770  .00000509  00000+0  14222-2 0  9993
2 45162  87.8835  37.2781 0001722  76.1135 284.0184 13.10375352307661
ONEWEB-0062             
1 45163U 20008AJ  26163.11436859  .00000348  00000+0  95984-3 0  9996
2 45163  87.8840  37.2755 0001425  90.4352 269.6939 13.10369543307526
ONEWEB-0065             
1 45164U 20008AK  26163.14755170 -.00000471  00000+0 -13848-2 0  9997
2 45164  87.8843  37.2770 0002151  81.0868 279.0503 13.10374784307224
STARLINK-1143           
1 45179U 20012B   26163.33335648  .00168783  21640-4  52234-3 0  9993
2 45179  53.0323 217.8299 0009319   6.9059  66.6442 15.91326085  6074
STARLINK-1202           
1 45183U 20012F   26162.71308415  .00044936  00000+0  13040-2 0  9997
2 45183  53.1562 321.4839 0001485 234.3361 125.7503 15.35095699349365
STARLINK-1216           
1 45185U 20012H   26162.75651926  .00046939  00000+0  13477-2 0  9990
2 45185  53.1575 321.1301 0001549 227.9990 132.0881 15.35409184349312
STARLINK-1225           
1 45187U 20012K   26163.14571578  .00050652  00000+0  14491-2 0  9994
2 45187  53.1576 319.7688 0001565 243.9218 116.1624 15.35488039349410
STARLINK-1230           
1 45189U 20012M   26163.15715695  .00051334  00000+0  14764-2 0  9998
2 45189  53.1579 319.7903 0001601 243.4340 116.6499 15.35316155346643
STARLINK-1234           
1 45190U 20012N   26163.30429926  .00077189  00000+0  50206-3 0  9994
2 45190  53.0359 218.0818 0004679 293.0945  66.9580 15.75272911350734
STARLINK-1269           
1 45197U 20012V   26163.15242573  .00052139  00000+0  14957-2 0  9995
2 45197  53.1572 319.6561 0000377 141.9147 218.1883 15.35390745349397
STARLINK-1154           
1 45198U 20012W   26162.62079750  .00039461  00000+0  41255-3 0  9997
2 45198  53.0423 276.1988 0002487   0.3767 359.7249 15.64089261349907
STARLINK-1199           
1 45201U 20012Z   26163.12349512  .00043964  00000+0  12654-2 0  9997
2 45201  53.1575 304.0602 0002139 293.5986  66.4792 15.35361586349634
STARLINK-1209           
1 45206U 20012AE  26162.45090510  .00038368  00000+0  36948-3 0  9993
2 45206  53.0377 237.1902 0007027 257.4424 102.5805 15.66149473349544
STARLINK-1231           
1 45212U 20012AL  26162.66971463  .00038867  00000+0  14043-2 0  9993
2 45212  53.0379 301.6148 0002567  71.3902 288.7375 15.28115307349568
STARLINK-1271           
1 45217U 20012AR  26163.12044203  .00046255  00000+0  13216-2 0  9994
2 45217  53.1573 304.1909 0002136 298.2709  61.8079 15.35570715349635
STARLINK-1191           
1 45222U 20012AW  26162.63490359  .00052064  00000+0  13040-2 0  9992
2 45222  53.1552 279.3562 0002172 247.2490 112.8286 15.39587784349946
STARLINK-1212           
1 45223U 20012AX  26163.23073470  .00056625  00000+0  51109-3 0  9997
2 45223  53.0394 248.9205 0000946  64.8841 295.2272 15.67611308350401
STARLINK-1215           
1 45225U 20012AZ  26162.59888274  .00040244  00000+0  11463-2 0  9991
2 45225  53.1573 280.8995 0003313 301.0613  59.0065 15.35728047349877
STARLINK-1221           
1 45227U 20012BB  26163.31750125  .00015168  00000+0  32512-3 0  9993
2 45227  53.0628 180.1208 0002806 339.4218  20.6674 15.44977334351328
STARLINK-1222           
1 45228U 20012BC  26162.55034574  .00031677  00000+0  46278-3 0  9999
2 45228  53.0529 250.8357 0002797  18.6133 341.4979 15.55380249350203
STARLINK-1226           
1 45229U 20012BD  26162.60592275  .00057521  00000+0  12168-2 0  9999
2 45229  53.1546 276.6672 0003520 296.4173  63.6473 15.44604574349876
STARLINK-1227           
1 45230U 20012BE  26162.61551230  .00057044  00000+0  12029-2 0  9994
2 45230  53.1540 276.7262 0003333 287.9711  72.0932 15.44704086349999
STARLINK-1246           
1 45235U 20012BK  26163.15887191  .00049794  00000+0  14315-2 0  9990
2 45235  53.1574 319.2534 0001989 248.1275 111.9516 15.35344333349452
STARLINK-1270           
1 45237U 20012BM  26162.55468050  .00095187  00000+0  10154-2 0  9998
2 45237  53.0398 253.7638 0003298 319.2855  40.7911 15.63196059350274
JCSAT-17                
1 45245U 20013A   26163.29175931 -.00000306  00000+0  00000+0 0  9999
2 45245   5.3925 356.8175 0002413  82.2620  62.6007  1.00272267 23183
GEO-KOMPSAT-2B          
1 45246U 20013B   26163.29019931 -.00000328  00000+0  00000+0 0  9991
2 45246   0.0222 248.7799 0000692  20.6692 223.9032  1.00273160 23238
MERIDIAN 9              
1 45254U 20015A   26162.98374377 -.00000116  00000+0  00000+0 0  9990
2 45254  65.5244 319.5141 6859121 278.0090  15.2148  2.00603455 46185
